1 45384U 20019AA  22365.34893759  .00008561  00000-0  59242-3 0  9997
2 45384  53.0546 333.5495 0001999  51.1416 308.9751 15.06430363154517
1 45384U 20019AA  22365.34893759  .00008561  00000-0  59242-3 0  9997
2 45384  53.0546 333.5495 0001999  51.1416 308.9751 15.06430363154517
1 45384U 20019AA  22365.61432458  .00003752  00000-0  27052-3 0  9993
2 45384  53.0546 332.3563 0002180  46.5265 313.5905 15.06420084154559
1 45384U 20019AA  22365.87971044  .00001179  00000-0  98018-4 0  9992
2 45384  53.0546 331.1658 0002246  53.5354 306.5841 15.06415696154599
1 45384U 20019AA  23001.27779808 -.00003742  00000-0 -23243-3 0  9995
2 45384  53.0552 329.3767 0002154  47.7994 312.3178 15.06396199154650
1 45384U 20019AA  23001.60954037 -.00004684  00000-0 -29585-3 0  9992
2 45384  53.0553 327.8889 0002132  47.2774 312.8394 15.06386788154700
1 45384U 20019AA  23001.60954037 -.00004684  00000-0 -29585-3 0  9992
2 45384  53.0553 327.8889 0002132  47.2774 312.8394 15.06386788154700
1 45384U 20019AA  23002.00763648 -.00003238  00000-0 -19867-3 0  9999
2 45384  53.0564 326.1022 0002080  48.3116 311.8051 15.06384390154769
1 45384U 20019AA  23002.27301887 -.00002567  00000-0 -15353-3 0  9991
2 45384  53.0560 324.9114 0002128  52.0096 308.1085 15.06393687154805
1 45384U 20019AA  23002.60474883 -.00000640  00000-0 -24041-4 0  9990
2 45384  53.0560 323.4221 0002096  50.2931 309.8242 15.06396647154857
1 45384U 20019AA  23003.13551730  .00000989  00000-0  85283-4 0  9995
2 45384  53.0560 321.0393 0002337  52.8093 307.3109 15.06404881154930
1 45384U 20019AA  23003.59995779  .00003136  00000-0  22944-3 0  9991
2 45384  53.0558 318.9543 0001959  45.7543 314.3607 15.06388723155005
1 45384U 20019AA  23003.59995779  .00003136  00000-0  22944-3 0  9991
2 45384  53.0558 318.9543 0001959  45.7543 314.3607 15.06388723155005
1 45384U 20019AA  23004.59516614  .00002295  00000-0  17299-3 0  9991
2 45384  53.0554 314.4872 0001968  45.7538 314.3613 15.06392417155159
1 45384U 20019AA  23005.25861303  .00005534  00000-0  38994-3 0  9997
2 45384  53.0551 311.5073 0001918  50.2811 309.8347 15.06420053155259
1 45384U 20019AA  23005.25861303  .00005534  00000-0  38994-3 0  9997
2 45384  53.0551 311.5073 0001918  50.2811 309.8347 15.06420053155259
1 45384U 20019AA  23006.78459611 -.00002417  00000-0 -14342-3 0  9991
2 45384  53.0536 304.6561 0001921  47.0939 313.0211 15.06397648155481
1 45384U 20019AA  23006.85094183 -.00002162  00000-0 -12631-3 0  9994
2 45384  53.0543 304.3589 0001844  49.9523 310.1627 15.06399004155498
1 45384U 20019AA  23007.18267246  .00000545  00000-0  55471-4 0  9994
2 45384  53.0548 302.8703 0001885  48.9786 311.1366 15.06406937155540
1 45384U 20019AA  23007.18267246  .00000545  00000-0  55471-4 0  9994
2 45384  53.0548 302.8703 0001885  48.9786 311.1366 15.06406937155540
1 45384U 20019AA  23007.77980781  .00001154  00000-0  96401-4 0  9990
2 45384  53.0557 300.1894 0001840  47.2521 312.8622 15.06379836155632
1 45384U 20019AA  23007.77980781  .00001154  00000-0  96401-4 0  9990
2 45384  53.0557 300.1894 0001840  47.2521 312.8622 15.06379836155632
1 45384U 20019AA  23008.50961833  .00005665  00000-0  39888-3 0  9995
2 45384  53.0551 296.9152 0001844  52.2864 307.8292 15.06399087155744
1 45384U 20019AA  23008.50961833  .00005665  00000-0  39888-3 0  9995
2 45384  53.0551 296.9152 0001844  52.2864 307.8292 15.06399087155744
1 45384U 20019AA  23008.90770443  .00002141  00000-0  16262-3 0  9991
2 45384  53.0539 295.1274 0001926  55.8696 304.2475 15.06392719155805
1 45384U 20019AA  23009.57116603  .00001107  00000-0  93180-4 0  9993
2 45384  53.0543 292.1481 0001750  51.0479 309.0666 15.06404385155908
1 45384U 20019AA  23009.57116603  .00001107  00000-0  93180-4 0  9993
2 45384  53.0543 292.1481 0001750  51.0479 309.0666 15.06404385155908
1 45384U 20019AA  23009.77021288  .00003782  00000-0  27270-3 0  9996
2 45384  53.0545 291.2550 0001474  51.3483 308.7638 15.06391065155936
1 45384U 20019AA  23009.77021288  .00003782  00000-0  27270-3 0  9996
2 45384  53.0545 291.2550 0001474  51.3483 308.7638 15.06391065155936
1 45384U 20019AA  23010.16829346  .00001406  00000-0  11330-3 0  9993
2 45384  53.0543 289.4690 0001709  55.7072 304.4079 15.06396717155998
1 45384U 20019AA  23010.89810226 -.00004865  00000-0 -30782-3 0  9996
2 45384  53.0541 286.1924 0001986  53.6567 306.4605 15.06408491156107
1 45384U 20019AA  23011.03080239  .00000899  00000-0  79250-4 0  9991
2 45384  53.0541 285.5968 0001799  51.8750 308.2400 15.06398126156122
1 45384U 20019AA  23011.56156504  .00002727  00000-0  20188-3 0  9995
2 45384  53.0551 283.2139 0001669  52.8823 307.2318 15.06408986156208
1 45384U 20019AA  23011.56156504  .00002727  00000-0  20188-3 0  9995
2 45384  53.0551 283.2139 0001669  52.8823 307.2318 15.06408986156208
1 45384U 20019AA  23011.82695610  .00003231  00000-0  23566-3 0  9994
2 45384  53.0548 282.0186 0000926  88.1355 271.9740 15.06403562156245
1 45384U 20019AA  23012.02599817  .00000544  00000-0  55431-4 0  9990
2 45384  53.0552 281.1288 0001669  50.0243 310.0893 15.06402552156277
1 45384U 20019AA  23012.95484020  .00002520  00000-0  18797-3 0  9990
2 45384  53.0549 276.9587 0001667  54.5161 305.5983 15.06413021156411
1 45384U 20019AA  23013.02118416  .00002837  00000-0  20917-3 0  9990
2 45384  53.0550 276.6612 0001652  52.2766 307.8372 15.06415675156424
1 45384U 20019AA  23013.41928567 -.00001742  00000-0 -98097-4 0  9990
2 45384  53.0549 274.8745 0001814  66.4807 293.6373 15.06394524156480
1 45384U 20019AA  23013.41928567 -.00001742  00000-0 -98097-4 0  9990
2 45384  53.0549 274.8745 0001814  66.4807 293.6373 15.06394524156480
1 45384U 20019AA  23013.81738996 -.00003754  00000-0 -23348-3 0  9990
2 45384  53.0547 273.0872 0001297  67.2164 292.8962 15.06366654156545
1 45384U 20019AA  23014.01642870 -.00002679  00000-0 -16113-3 0  9995
2 45384  53.0542 272.1936 0001416  70.7161 289.3981 15.06372414156576
1 45384U 20019AA  23014.41449791 -.00002030  00000-0 -11745-3 0  9993
2 45384  53.0531 270.4064 0001506  74.1677 285.9478 15.06383249156635
1 45384U 20019AA  23014.81257698  .00001167  00000-0  97254-4 0  9998
2 45384  53.0526 268.6194 0001389  82.7427 277.3720 15.06394862156693
1 45384U 20019AA  23015.40971124  .00005369  00000-0  37914-3 0  9995
2 45384  53.0526 265.9383 0001332  81.4185 278.6954 15.06388617156782
1 45384U 20019AA  23015.40971124  .00005369  00000-0  37914-3 0  9995
2 45384  53.0526 265.9383 0001332  81.4185 278.6954 15.06388617156782
1 45384U 20019AA  23015.94049057  .00015725  00000-0  10722-2 0  9999
2 45384  53.0520 263.5553 0001131  91.3441 268.7678 15.06399737156868
1 45384U 20019AA  23016.53761525  .00014308  00000-0  97737-3 0  9994
2 45384  53.0520 260.8741 0001090  92.5557 267.5556 15.06403330156959
1 45384U 20019AA  23016.93569483  .00011359  00000-0  78003-3 0  9995
2 45384  53.0521 259.0871 0001110  90.7478 269.3638 15.06408435157019
1 45384U 20019AA  23017.40012059  .00005080  00000-0  35961-3 0  9990
2 45384  53.0521 257.0022 0001121  86.7647 273.3470 15.06406542157083
1 45384U 20019AA  23017.40012059  .00005080  00000-0  35961-3 0  9990
2 45384  53.0521 257.0022 0001121  86.7647 273.3470 15.06406542157083
1 45384U 20019AA  23017.66550932  .00004363  00000-0  31159-3 0  9993
2 45384  53.0522 255.8108 0001412  91.6555 268.4596 15.06405310157122
1 45384U 20019AA  23017.93089561  .00002213  00000-0  16739-3 0  9997
2 45384  53.0524 254.6193 0001207 101.5736 258.5389 15.06401380157166
1 45384U 20019AA  23017.93089561  .00002213  00000-0  16739-3 0  9997
2 45384  53.0524 254.6193 0001207 101.5736 258.5389 15.06401380157166
1 45384U 20019AA  23018.92609653  .00007240  00000-0  50428-3 0  9995
2 45384  53.0522 250.1526 0001228  93.6744 266.4385 15.06409846157314
1 45384U 20019AA  23019.05878852  .00008436  00000-0  58432-3 0  9990
2 45384  53.0522 249.5566 0001287  93.3826 266.7310 15.06413849157334
1 45384U 20019AA  23019.32418315  .00000225  00000-0  34041-4 0  9993
2 45384  53.0512 248.3636 0001643  96.5394 263.5782 15.06394906157373
1 45384U 20019AA  23019.32418315  .00000225  00000-0  34041-4 0  9993
2 45384  53.0512 248.3636 0001643  96.5394 263.5782 15.06394906157373
1 45384U 20019AA  23020.05398745  .00010185  00000-0  70125-3 0  9997
2 45384  53.0508 245.0883 0001273 101.0440 259.0692 15.06419716157488
1 45384U 20019AA  23020.31937428  .00007785  00000-0  54074-3 0  9990
2 45384  53.0506 243.8928 0000830  63.2990 296.8084 15.06412013157521
1 45384U 20019AA  23020.31937428  .00007785  00000-0  54074-3 0  9990
2 45384  53.0506 243.8928 0000830  63.2990 296.8084 15.06412013157521
1 45384U 20019AA  23020.91650282 -.00001677  00000-0 -93727-4 0  9991
2 45384  53.0500 241.2210 0000977 106.1085 254.0011 15.06393234157614
1 45384U 20019AA  23022.57517702  .00003919  00000-0  28182-3 0  9995
2 45384  53.0489 233.7716 0001287  88.2610 271.8526 15.06400498157862
1 45384U 20019AA  23023.50403584  .00001069  00000-0  90663-4 0  9999
2 45384  53.0515 229.5997 0001262  92.1615 267.9518 15.06395077158008
1 45384U 20019AA  23024.49923119  .00004442  00000-0  31683-3 0  9993
2 45384  53.0519 225.1313 0001263  92.8278 267.2856 15.06409102158158
1 45384U 20019AA  23024.83095455  .00007815  00000-0  54258-3 0  9994
2 45384  53.0519 223.6430 0001227  86.5574 273.5555 15.06426192158200
1 45384U 20019AA  23025.22903808  .00003167  00000-0  23134-3 0  9993
2 45384  53.0518 221.8550 0001346  86.2591 273.8552 15.06413687158261
1 45384U 20019AA  23025.49443158 -.00003005  00000-0 -18295-3 0  9994
2 45384  53.0520 220.6631 0001166  90.1500 269.9623 15.06393872158308
1 45384U 20019AA  23025.49443158 -.00003005  00000-0 -18295-3 0  9994
2 45384  53.0520 220.6631 0001166  90.1500 269.9623 15.06393872158308
1 45384U 20019AA  23025.82616146 -.00003549  00000-0 -21953-3 0  9998
2 45384  53.0521 219.1742 0001220  96.8646 263.2481 15.06397574158357
1 45384U 20019AA  23026.48963847  .00005925  00000-0  41647-3 0  9994
2 45384  53.0522 216.1952 0001237  96.5519 263.5611 15.06385936158450
